[{"OBJECT_NAME":"ONEWEB-0348","OBJECT_ID":"2021-083AD","EPOCH":"2025-11-13T06:47:31.101504","MEAN_MOTION":13.20806459,"ECCENTRICITY":0.00021584,"INCLINATION":87.9173,"RA_OF_ASC_NODE":317.5011,"ARG_OF_PERICENTER":91.4693,"MEAN_ANOMALY":268.6688,"EPHEMERIS_TYPE":0,"CLASSIFICATION_TYPE":"U","NORAD_CAT_ID":49213,"ELEMENT_SET_NO":999,"REV_AT_EPOCH":20831,"BSTAR":0.0098253864,"MEAN_MOTION_DOT":4.012e-5,"MEAN_MOTION_DDOT":0},{"OBJECT_NAME":"ONEWEB-0350","OBJECT_ID":"2021-083AE","EPOCH":"2025-11-13T03:46:22.517184","MEAN_MOTION":13.13468224,"ECCENTRICITY":0.00016985,"INCLINATION":87.9012,"RA_OF_ASC_NODE":3.1607,"ARG_OF_PERICENTER":87.0087,"MEAN_ANOMALY":273.1237,"EPHEMERIS_TYPE":0,"CLASSIFICATION_TYPE":"U","NORAD_CAT_ID":49214,"ELEMENT_SET_NO":999,"REV_AT_EPOCH":20257,"BSTAR":-0.00068290352,"MEAN_MOTION_DOT":-2.37e-6,"MEAN_MOTION_DDOT":0},{"OBJECT_NAME":"ONEWEB-0351","OBJECT_ID":"2021-083AF","EPOCH":"2025-11-13T01:11:01.752576","MEAN_MOTION":13.20770806,"ECCENTRICITY":0.00027108,"INCLINATION":87.9189,"RA_OF_ASC_NODE":317.5419,"ARG_OF_PERICENTER":87.108,"MEAN_ANOMALY":273.0364,"EPHEMERIS_TYPE":0,"CLASSIFICATION_TYPE":"U","NORAD_CAT_ID":49215,"ELEMENT_SET_NO":999,"REV_AT_EPOCH":20824,"BSTAR":9.2476653e-5,"MEAN_MOTION_DOT":5.1e-7,"MEAN_MOTION_DDOT":0},{"OBJECT_NAME":"ONEWEB-0352","OBJECT_ID":"2021-083AG","EPOCH":"2025-11-13T03:18:21.785760","MEAN_MOTION":13.13469341,"ECCENTRICITY":0.00022264,"INCLINATION":87.9005,"RA_OF_ASC_NODE":3.1908,"ARG_OF_PERICENTER":96.1185,"MEAN_ANOMALY":264.0198,"EPHEMERIS_TYPE":0,"CLASSIFICATION_TYPE":"U","NORAD_CAT_ID":49216,"ELEMENT_SET_NO":999,"REV_AT_EPOCH":20266,"BSTAR":0.00033414413,"MEAN_MOTION_DOT":1.35e-6,"MEAN_MOTION_DDOT":0},{"OBJECT_NAME":"ONEWEB-0354","OBJECT_ID":"2021-083AH","EPOCH":"2025-11-12T23:58:29.358624","MEAN_MOTION":13.20772479,"ECCENTRICITY":0.0001692,"INCLINATION":87.9189,"RA_OF_ASC_NODE":317.551,"ARG_OF_PERICENTER":81.2704,"MEAN_ANOMALY":278.8621,"EPHEMERIS_TYPE":0,"CLASSIFICATION_TYPE":"U","NORAD_CAT_ID":49217,"ELEMENT_SET_NO":999,"REV_AT_EPOCH":20827,"BSTAR":1.5765e-6,"MEAN_MOTION_DOT":1.4e-7,"MEAN_MOTION_DDOT":0},{"OBJECT_NAME":"ONEWEB-0355","OBJECT_ID":"2021-083AJ","EPOCH":"2025-11-13T03:59:59.969184","MEAN_MOTION":13.13470407,"ECCENTRICITY":0.00019796,"INCLINATION":87.901,"RA_OF_ASC_NODE":3.1975,"ARG_OF_PERICENTER":92.3538,"MEAN_ANOMALY":267.7818,"EPHEMERIS_TYPE":0,"CLASSIFICATION_TYPE":"U","NORAD_CAT_ID":49218,"ELEMENT_SET_NO":999,"REV_AT_EPOCH":20254,"BSTAR":-0.00064258899,"MEAN_MOTION_DOT":-2.22e-6,"MEAN_MOTION_DDOT":0},{"OBJECT_NAME":"ONEWEB-0357","OBJECT_ID":"2021-083AK","EPOCH":"2025-11-13T01:43:02.352864","MEAN_MOTION":13.20772178,"ECCENTRICITY":0.00019416,"INCLINATION":87.9186,"RA_OF_ASC_NODE":317.5335,"ARG_OF_PERICENTER":86.2853,"MEAN_ANOMALY":273.8502,"EPHEMERIS_TYPE":0,"CLASSIFICATION_TYPE":"U","NORAD_CAT_ID":49219,"ELEMENT_SET_NO":999,"REV_AT_EPOCH":20828,"BSTAR":0.00019135443,"MEAN_MOTION_DOT":9.1e-7,"MEAN_MOTION_DDOT":0},{"OBJECT_NAME":"ONEWEB-0332","OBJECT_ID":"2021-090A","EPOCH":"2025-11-13T06:32:21.782112","MEAN_MOTION":13.14505306,"ECCENTRICITY":0.00020404,"INCLINATION":87.8993,"RA_OF_ASC_NODE":332.7363,"ARG_OF_PERICENTER":98.5578,"MEAN_ANOMALY":261.5783,"EPHEMERIS_TYPE":0,"CLASSIFICATION_TYPE":"U","NORAD_CAT_ID":49279,"ELEMENT_SET_NO":999,"REV_AT_EPOCH":19921,"BSTAR":0.00076102841,"MEAN_MOTION_DOT":2.95e-6,"MEAN_MOTION_DDOT":0},{"OBJECT_NAME":"ONEWEB-0347","OBJECT_ID":"2021-090B","EPOCH":"2025-11-13T06:56:40.005024","MEAN_MOTION":13.20771138,"ECCENTRICITY":0.00019061,"INCLINATION":87.9179,"RA_OF_ASC_NODE":317.502,"ARG_OF_PERICENTER":100.3003,"MEAN_ANOMALY":259.8345,"EPHEMERIS_TYPE":0,"CLASSIFICATION_TYPE":"U","NORAD_CAT_ID":49280,"ELEMENT_SET_NO":999,"REV_AT_EPOCH":20254,"BSTAR":0.00039882089,"MEAN_MOTION_DOT":1.75e-6,"MEAN_MOTION_DDOT":0},{"OBJECT_NAME":"ONEWEB-0349","OBJECT_ID":"2021-090C","EPOCH":"2025-11-13T05:53:02.712192","MEAN_MOTION":13.20772554,"ECCENTRICITY":0.00019063,"INCLINATION":87.9175,"RA_OF_ASC_NODE":317.5101,"ARG_OF_PERICENTER":88.9769,"MEAN_ANOMALY":271.1583,"EPHEMERIS_TYPE":0,"CLASSIFICATION_TYPE":"U","NORAD_CAT_ID":49281,"ELEMENT_SET_NO":999,"REV_AT_EPOCH":20132,"BSTAR":6.4818719e-5,"MEAN_MOTION_DOT":3.9e-7,"MEAN_MOTION_DDOT":0},{"OBJECT_NAME":"ONEWEB-0353","OBJECT_ID":"2021-090D","EPOCH":"2025-11-13T02:41:43.681632","MEAN_MOTION":13.14501957,"ECCENTRICITY":0.00019924,"INCLINATION":87.8991,"RA_OF_ASC_NODE":332.7514,"ARG_OF_PERICENTER":99.2051,"MEAN_ANOMALY":260.9304,"EPHEMERIS_TYPE":0,"CLASSIFICATION_TYPE":"U","NORAD_CAT_ID":49282,"ELEMENT_SET_NO":999,"REV_AT_EPOCH":19919,"BSTAR":0.00072474694,"MEAN_MOTION_DOT":2.81e-6,"MEAN_MOTION_DDOT":0},{"OBJECT_NAME":"ONEWEB-0356","OBJECT_ID":"2021-090E","EPOCH":"2025-11-13T05:50:45.307680","MEAN_MOTION":13.20773794,"ECCENTRICITY":0.00013401,"INCLINATION":87.9184,"RA_OF_ASC_NODE":317.5018,"ARG_OF_PERICENTER":113.5952,"MEAN_ANOMALY":246.5322,"EPHEMERIS_TYPE":0,"CLASSIFICATION_TYPE":"U","NORAD_CAT_ID":49283,"ELEMENT_SET_NO":999,"REV_AT_EPOCH":20132,"BSTAR":4.5016659e-5,"MEAN_MOTION_DOT":3.1e-7,"MEAN_MOTION_DDOT":0},{"OBJECT_NAME":"ONEWEB-0358","OBJECT_ID":"2021-090F","EPOCH":"2025-11-13T06:33:56.206944","MEAN_MOTION":13.20773093,"ECCENTRICITY":0.00016939,"INCLINATION":87.919,"RA_OF_ASC_NODE":317.4952,"ARG_OF_PERICENTER":90.2679,"MEAN_ANOMALY":269.8648,"EPHEMERIS_TYPE":0,"CLASSIFICATION_TYPE":"U","NORAD_CAT_ID":49284,"ELEMENT_SET_NO":999,"REV_AT_EPOCH":20205,"BSTAR":0.00033440445,"MEAN_MOTION_DOT":1.49e-6,"MEAN_MOTION_DDOT":0},{"OBJECT_NAME":"ONEWEB-0359","OBJECT_ID":"2021-090G","EPOCH":"2025-11-12T23:13:01.181856","MEAN_MOTION":13.20795783,"ECCENTRICITY":0.0001918,"INCLINATION":87.9191,"RA_OF_ASC_NODE":317.5574,"ARG_OF_PERICENTER":83.1119,"MEAN_ANOMALY":277.0233,"EPHEMERIS_TYPE":0,"CLASSIFICATION_TYPE":"U","NORAD_CAT_ID":49285,"ELEMENT_SET_NO":999,"REV_AT_EPOCH":20199,"BSTAR":-0.0039416,"MEAN_MOTION_DOT":-1.59e-5,"MEAN_MOTION_DDOT":0},{"OBJECT_NAME":"ONEWEB-0360","OBJECT_ID":"2021-090H","EPOCH":"2025-11-13T06:15:45.927072","MEAN_MOTION":13.20770585,"ECCENTRICITY":0.00018143,"INCLINATION":87.9181,"RA_OF_ASC_NODE":317.5083,"ARG_OF_PERICENTER":85.9379,"MEAN_ANOMALY":274.1961,"EPHEMERIS_TYPE":0,"CLASSIFICATION_TYPE":"U","NORAD_CAT_ID":49286,"ELEMENT_SET_NO":999,"REV_AT_EPOCH":20134,"BSTAR":0.00024051559,"MEAN_MOTION_DOT":1.11e-6,"MEAN_MOTION_DDOT":0},{"OBJECT_NAME":"ONEWEB-0361","OBJECT_ID":"2021-090J","EPOCH":"2025-11-13T05:48:28.863936","MEAN_MOTION":13.20771156,"ECCENTRICITY":0.00016896,"INCLINATION":87.9179,"RA_OF_ASC_NODE":317.5076,"ARG_OF_PERICENTER":93.1599,"MEAN_ANOMALY":266.9728,"EPHEMERIS_TYPE":0,"CLASSIFICATION_TYPE":"U","NORAD_CAT_ID":49287,"ELEMENT_SET_NO":999,"REV_AT_EPOCH":20179,"BSTAR":0.0002426165,"MEAN_MOTION_DOT":1.12e-6,"MEAN_MOTION_DDOT":0},{"OBJECT_NAME":"ONEWEB-0362","OBJECT_ID":"2021-090K","EPOCH":"2025-11-13T02:23:05.361504","MEAN_MOTION":13.19726863,"ECCENTRICITY":0.0002056,"INCLINATION":87.9213,"RA_OF_ASC_NODE":347.9847,"ARG_OF_PERICENTER":90.6571,"MEAN_ANOMALY":269.4798,"EPHEMERIS_TYPE":0,"CLASSIFICATION_TYPE":"U","NORAD_CAT_ID":49288,"ELEMENT_SET_NO":999,"REV_AT_EPOCH":19841,"BSTAR":0.00014575984,"MEAN_MOTION_DOT":7.1e-7,"MEAN_MOTION_DDOT":0}]
