ONEWEB-0348             
1 49213U 21083AD  25317.28299886  .00004012  00000+0  98254-2 0  9999
2 49213  87.9173 317.5011 0002158  91.4693 268.6688 13.20806459208318
ONEWEB-0350             
1 49214U 21083AE  25317.15720506 -.00000237  00000+0 -68290-3 0  9999
2 49214  87.9012   3.1607 0001698  87.0087 273.1237 13.13468224202575
ONEWEB-0351             
1 49215U 21083AF  25317.04932584  .00000051  00000+0  92477-4 0  9996
2 49215  87.9189 317.5419 0002710  87.1080 273.0364 13.20770806208244
ONEWEB-0352             
1 49216U 21083AG  25317.13775215  .00000135  00000+0  33414-3 0  9991
2 49216  87.9005   3.1908 0002226  96.1185 264.0198 13.13469341202667
ONEWEB-0354             
1 49217U 21083AH  25316.99895091  .00000014  00000+0  15765-5 0  9997
2 49217  87.9189 317.5510 0001692  81.2704 278.8621 13.20772479208274
ONEWEB-0355             
1 49218U 21083AJ  25317.16666631 -.00000222  00000+0 -64259-3 0  9997
2 49218  87.9010   3.1975 0001979  92.3538 267.7818 13.13470407202544
ONEWEB-0357             
1 49219U 21083AK  25317.07155501  .00000091  00000+0  19135-3 0  9992
2 49219  87.9186 317.5335 0001941  86.2853 273.8502 13.20772178208285
ONEWEB-0332             
1 49279U 21090A   25317.27247433  .00000295  00000+0  76103-3 0  9998
2 49279  87.8993 332.7363 0002040  98.5578 261.5783 13.14505306199214
ONEWEB-0347             
1 49280U 21090B   25317.28935191  .00000175  00000+0  39882-3 0  9996
2 49280  87.9179 317.5020 0001906 100.3003 259.8345 13.20771138202549
ONEWEB-0349             
1 49281U 21090C   25317.24517028  .00000039  00000+0  64819-4 0  9996
2 49281  87.9175 317.5101 0001906  88.9769 271.1583 13.20772554201325
ONEWEB-0353             
1 49282U 21090D   25317.11231113  .00000281  00000+0  72475-3 0  9996
2 49282  87.8991 332.7514 0001992  99.2051 260.9304 13.14501957199190
ONEWEB-0356             
1 49283U 21090E   25317.24357995  .00000031  00000+0  45017-4 0  9994
2 49283  87.9184 317.5018 0001340 113.5952 246.5322 13.20773794201329
ONEWEB-0358             
1 49284U 21090F   25317.27356721  .00000149  00000+0  33440-3 0  9990
2 49284  87.9190 317.4952 0001693  90.2679 269.8648 13.20773093202053
ONEWEB-0359             
1 49285U 21090G   25316.96737479 -.00001590  00000+0 -39416-2 0  9990
2 49285  87.9191 317.5574 0001918  83.1119 277.0233 13.20795783201999
ONEWEB-0360             
1 49286U 21090H   25317.26094823  .00000111  00000+0  24052-3 0  9991
2 49286  87.9181 317.5083 0001814  85.9379 274.1961 13.20770585201345
ONEWEB-0361             
1 49287U 21090J   25317.24200074  .00000112  00000+0  24262-3 0  9991
2 49287  87.9179 317.5076 0001689  93.1599 266.9728 13.20771156201794
ONEWEB-0362             
1 49288U 21090K   25317.09936761  .00000071  00000+0  14576-3 0  9995
2 49288  87.9213 347.9847 0002056  90.6571 269.4798 13.19726863198410
